{
  "name": "SATGUS",
  "line1": "1 62713U 25009DJ  25336.17785350  .00010581  00000+0  90033-3 0  9992",
  "line2": "2 62713  97.7246  54.4150 0003705  81.2731 278.8910 14.97992796 48035",
  "fetched_at": "2025-12-03T00:18:51.849886+00:00"
}